[{"OBJECT_NAME":"STARLINK-30835","OBJECT_ID":"2023-170P","EPOCH":"2026-03-09T22:00:01.999584","MEAN_MOTION":15.26734446,"ECCENTRICITY":0.00013973,"INCLINATION":42.9999,"RA_OF_ASC_NODE":192.6851,"ARG_OF_PERICENTER":265.0727,"MEAN_ANOMALY":222.1467,"EPHEMERIS_TYPE":0,"CLASSIFICATION_TYPE":"U","NORAD_CAT_ID":58219,"ELEMENT_SET_NO":999,"REV_AT_EPOCH":568,"BSTAR":0.0008521032,"MEAN_MOTION_DOT":0.00022663,"MEAN_MOTION_DDOT":0},{"OBJECT_NAME":"FLOCK 4G-14","OBJECT_ID":"2025-009BL","EPOCH":"2026-03-09T18:12:31.432032","MEAN_MOTION":15.27197201,"ECCENTRICITY":0.00030064,"INCLINATION":97.4064,"RA_OF_ASC_NODE":151.1836,"ARG_OF_PERICENTER":318.3639,"MEAN_ANOMALY":41.7371,"EPHEMERIS_TYPE":0,"CLASSIFICATION_TYPE":"U","NORAD_CAT_ID":62667,"ELEMENT_SET_NO":999,"REV_AT_EPOCH":6371,"BSTAR":0.00042675627,"MEAN_MOTION_DOT":0.0001131,"MEAN_MOTION_DDOT":0}]
